{
  "links" : {
    "next" : "https://api.nasa.gov/neo/rest/v1/feed?start_date=2007-08-23&end_date=2007-08-23&detailed=true&api_key=t0TVs3DtDT2H8Oy2Zy8m2eVrNsAVKAexjcZXUckd",
    "prev" : "https://api.nasa.gov/neo/rest/v1/feed?start_date=2007-08-21&end_date=2007-08-21&detailed=true&api_key=t0TVs3DtDT2H8Oy2Zy8m2eVrNsAVKAexjcZXUckd",
    "self" : "https://api.nasa.gov/neo/rest/v1/feed?start_date=2007-08-22&end_date=2007-08-22&detailed=true&api_key=t0TVs3DtDT2H8Oy2Zy8m2eVrNsAVKAexjcZXUckd"
  },
  "element_count" : 9,
  "near_earth_objects" : {
    "2007-08-22" : [ {
      "links" : {
        "self" : "https://api.nasa.gov/neo/rest/v1/neo/3092310?api_key=t0TVs3DtDT2H8Oy2Zy8m2eVrNsAVKAexjcZXUckd"
      },
      "neo_reference_id" : "3092310",
      "name" : "(2001 QE96)",
      "nasa_jpl_url" : "http://ssd.jpl.nasa.gov/sbdb.cgi?sstr=3092310",
      "absolute_magnitude_h" : 22.7,
      "estimated_diameter" : {
        "kilometers" : {
          "estimated_diameter_min" : 0.0766575574,
          "estimated_diameter_max" : 0.1714115092
        },
        "meters" : {
          "estimated_diameter_min" : 76.6575573531,
          "estimated_diameter_max" : 171.4115092306
        },
        "miles" : {
          "estimated_diameter_min" : 0.0476327831,
          "estimated_diameter_max" : 0.1065101409
        },
        "feet" : {
          "estimated_diameter_min" : 251.5011804664,
          "estimated_diameter_max" : 562.3737359442
        }
      },
      "is_potentially_hazardous_asteroid" : false,
      "close_approach_data" : [ {
        "close_approach_date" : "2007-08-22",
        "epoch_date_close_approach" : 1187766000000,
        "relative_velocity" : {
          "kilometers_per_second" : "4.9805305461",
          "kilometers_per_hour" : "17929.9099658652",
          "miles_per_hour" : "11140.9487785122"
        },
        "miss_distance" : {
          "astronomical" : "0.3053676693",
          "lunar" : "118.7880249023",
          "kilometers" : "45682356",
          "miles" : "28385700"
        },
        "orbiting_body" : "Earth"
      } ],
      "orbital_data" : {
        "orbit_id" : "12",
        "orbit_determination_date" : "2017-04-06 09:16:13",
        "orbit_uncertainty" : "1",
        "minimum_orbit_intersection" : ".300639",
        "jupiter_tisserand_invariant" : "4.965",
        "epoch_osculation" : "2458000.5",
        "eccentricity" : ".02793750947401575",
        "semi_major_axis" : "1.310762653141905",
        "inclination" : "7.265658888228114",
        "ascending_node_longitude" : "150.2649292379566",
        "orbital_period" : "548.1311897860478",
        "perihelion_distance" : "1.274143209101567",
        "perihelion_argument" : "278.9705054663746",
        "aphelion_distance" : "1.347382097182243",
        "perihelion_time" : "2457772.382205747224",
        "mean_anomaly" : "149.8225378545859",
        "mean_motion" : ".6567770758320083",
        "equinox" : "J2000"
      }
    }, {
      "links" : {
        "self" : "https://api.nasa.gov/neo/rest/v1/neo/3381258?api_key=t0TVs3DtDT2H8Oy2Zy8m2eVrNsAVKAexjcZXUckd"
      },
      "neo_reference_id" : "3381258",
      "name" : "(2007 PQ9)",
      "nasa_jpl_url" : "http://ssd.jpl.nasa.gov/sbdb.cgi?sstr=3381258",
      "absolute_magnitude_h" : 22.0,
      "estimated_diameter" : {
        "kilometers" : {
          "estimated_diameter_min" : 0.1058168859,
          "estimated_diameter_max" : 0.2366137501
        },
        "meters" : {
          "estimated_diameter_min" : 105.8168859331,
          "estimated_diameter_max" : 236.6137501138
        },
        "miles" : {
          "estimated_diameter_min" : 0.0657515442,
          "estimated_diameter_max" : 0.1470249225
        },
        "feet" : {
          "estimated_diameter_min" : 347.1682720448,
          "estimated_diameter_max" : 776.2918559233
        }
      },
      "is_potentially_hazardous_asteroid" : false,
      "close_approach_data" : [ {
        "close_approach_date" : "2007-08-22",
        "epoch_date_close_approach" : 1187766000000,
        "relative_velocity" : {
          "kilometers_per_second" : "5.5560970809",
          "kilometers_per_hour" : "20001.9494913467",
          "miles_per_hour" : "12428.4335603315"
        },
        "miss_distance" : {
          "astronomical" : "0.0987298351",
          "lunar" : "38.4059066772",
          "kilometers" : "14769773",
          "miles" : "9177511"
        },
        "orbiting_body" : "Earth"
      } ],
      "orbital_data" : {
        "orbit_id" : "19",
        "orbit_determination_date" : "2017-04-06 09:06:13",
        "orbit_uncertainty" : "1",
        "minimum_orbit_intersection" : ".094016",
        "jupiter_tisserand_invariant" : "4.653",
        "epoch_osculation" : "2458000.5",
        "eccentricity" : ".2411580124984683",
        "semi_major_axis" : "1.426541592958175",
        "inclination" : "8.555753760882901",
        "ascending_node_longitude" : "135.9932350183856",
        "orbital_period" : "622.3362303389936",
        "perihelion_distance" : "1.082519657653982",
        "perihelion_argument" : "215.4373875126386",
        "aphelion_distance" : "1.770563528262367",
        "perihelion_time" : "2458090.463646398110",
        "mean_anomaly" : "307.9591398918264",
        "mean_motion" : ".5784654378934421",
        "equinox" : "J2000"
      }
    }, {
      "links" : {
        "self" : "https://api.nasa.gov/neo/rest/v1/neo/3394779?api_key=t0TVs3DtDT2H8Oy2Zy8m2eVrNsAVKAexjcZXUckd"
      },
      "neo_reference_id" : "3394779",
      "name" : "(2007 WB)",
      "nasa_jpl_url" : "http://ssd.jpl.nasa.gov/sbdb.cgi?sstr=3394779",
      "absolute_magnitude_h" : 18.8,
      "estimated_diameter" : {
        "kilometers" : {
          "estimated_diameter_min" : 0.4619074603,
          "estimated_diameter_max" : 1.0328564805
        },
        "meters" : {
          "estimated_diameter_min" : 461.9074602816,
          "estimated_diameter_max" : 1032.8564805039
        },
        "miles" : {
          "estimated_diameter_min" : 0.2870159005,
          "estimated_diameter_max" : 0.6417870641
        },
        "feet" : {
          "estimated_diameter_min" : 1515.4444719902,
          "estimated_diameter_max" : 3388.6368554964
        }
      },
      "is_potentially_hazardous_asteroid" : false,
      "close_approach_data" : [ {
        "close_approach_date" : "2007-08-22",
        "epoch_date_close_approach" : 1187766000000,
        "relative_velocity" : {
          "kilometers_per_second" : "21.7434351483",
          "kilometers_per_hour" : "78276.3665339398",
          "miles_per_hour" : "48637.8900832694"
        },
        "miss_distance" : {
          "astronomical" : "0.4901832892",
          "lunar" : "190.6813049316",
          "kilometers" : "73330376",
          "miles" : "45565384"
        },
        "orbiting_body" : "Earth"
      } ],
      "orbital_data" : {
        "orbit_id" : "17",
        "orbit_determination_date" : "2017-04-06 09:05:06",
        "orbit_uncertainty" : "2",
        "minimum_orbit_intersection" : ".188015",
        "jupiter_tisserand_invariant" : "3.893",
        "epoch_osculation" : "2458000.5",
        "eccentricity" : ".7095289775820923",
        "semi_major_axis" : "1.668827151561729",
        "inclination" : "13.73554529381769",
        "ascending_node_longitude" : "83.08101312693539",
        "orbital_period" : "787.4363561964757",
        "perihelion_distance" : ".4847459289529001",
        "perihelion_argument" : "203.7191637261352",
        "aphelion_distance" : "2.852908374170559",
        "perihelion_time" : "2458256.181981636405",
        "mean_anomaly" : "243.1073614206617",
        "mean_motion" : ".457179805284702",
        "equinox" : "J2000"
      }
    } ]
  }
}